[{"OBJECT_NAME":"SWAS","OBJECT_ID":"1998-071A","EPOCH":"2026-03-09T12:50:12.826752","MEAN_MOTION":15.08888192,"ECCENTRICITY":0.00040991,"INCLINATION":69.8952,"RA_OF_ASC_NODE":124.3662,"ARG_OF_PERICENTER":14.3215,"MEAN_ANOMALY":345.8065,"EPHEMERIS_TYPE":0,"CLASSIFICATION_TYPE":"U","NORAD_CAT_ID":25560,"ELEMENT_SET_NO":999,"REV_AT_EPOCH":48223,"BSTAR":0.00029986322,"MEAN_MOTION_DOT":4.636e-5,"MEAN_MOTION_DDOT":0},{"OBJECT_NAME":"STARLINK-3585","OBJECT_ID":"2022-022Z","EPOCH":"2026-03-09T06:10:42.518784","MEAN_MOTION":15.08841392,"ECCENTRICITY":0.00012407,"INCLINATION":53.2194,"RA_OF_ASC_NODE":10.9734,"ARG_OF_PERICENTER":96.9709,"MEAN_ANOMALY":263.1425,"EPHEMERIS_TYPE":0,"CLASSIFICATION_TYPE":"U","NORAD_CAT_ID":51875,"ELEMENT_SET_NO":999,"REV_AT_EPOCH":22305,"BSTAR":-0.00015749924,"MEAN_MOTION_DOT":-2.794e-5,"MEAN_MOTION_DDOT":0}]
